1 27526U 02043B   11364.86239027  .01360498 -11399-5  79307-3 0  9992
2 27526 017.6905 305.6033 3527221 093.2811 325.0606 08.59083044129429
1 27526U 02043B   11365.35651380  .01370433 -11502-5  78062-3 0  9990
2 27526 017.6881 304.3745 3520560 095.6097 054.5193 08.60464657129463
1 27526U 02043B   11365.78685856  .01377400 -11573-5  73948-3 0  9999
2 27526 017.7088 303.2743 3515308 097.6031 308.5686 08.61667337129508
1 27526U 02043B   12001.03322502  .01380230 -11617-5  71819-3 0  9990
2 27526 017.7200 302.6516 3512262 098.7432 353.1415 08.62357482129524
1 27526U 02043B   12001.40577869  .01381155 -11692-5  68103-3 0  9991
2 27526 017.7303 301.7085 3507816 100.5109 070.4208 08.63389803129556
1 27526U 02043B   12001.83272693  .01392563 -11809-5  74689-3 0  9996
2 27526 017.7215 300.6579 3500487 102.5167 318.4531 08.64608991129598
1 27526U 02043B   12001.95561340  .01404239 -11850-5  74419-3 0  9990
2 27526 017.7131 300.3364 3498730 103.0819 341.1346 08.64990821129606
1 27526U 02043B   12002.32274001  .01405165 -11940-5  70460-3 0  9998
2 27526 017.7160 299.4009 3494294 104.8396 045.0381 08.66025791129631
1 27526U 02043B   12002.74926755  .01414375 -12045-5  72659-3 0  9996
2 27526 017.7291 298.3106 3487769 106.8316 295.8285 08.67253724129677
1 27526U 02043B   12002.99534862  .01425697 -12115-5  69246-3 0  9992
2 27526 017.7285 297.6681 3484855 107.9815 344.5670 08.67990577129695
1 27526U 02043B   12003.36383163  .01427681 -12234-5  73691-3 0  9996
2 27526 017.7186 296.7137 3478685 109.7435 056.6847 08.69045412129725
1 27526U 02043B   12003.78830218  .01425655 -12347-5  71024-3 0  9992
2 27526 017.7303 295.6511 3473134 111.7398 305.5660 08.70248478129767
1 27526U 02043B   12004.03258256  .01423512 -12424-5  71753-3 0  9992
2 27526 017.7283 295.0228 3469511 112.9021 351.1504 08.70936122129789
